OOV-CUBE (TUBSAT-30)    
1 60240U 24128F   26062.70540566  .00004646  00000+0  35541-3 0  9998
2 60240  61.9935 233.2348 0055028 111.1965 249.5017 15.02193642 90264
